#aV2015  2 16  0  0  0.00000000     288 DD+AD WGS84 FIT  NGA
## 1832  86400.00000000   300.00000000 57069 0.0000000000000
+   31     1  2  3  4  5  6  7  8  9 10 11 12 13 14 15 16 17
+         18 19 20 21 22 23 24 25 27 28 29 30 31 32  0  0  0
+          0  0  0  0  0  0  0  0  0  0  0  0  0  0  0  0  0
+          0  0  0  0  0  0  0  0  0  0  0  0  0  0  0  0  0
+          0  0  0  0  0  0  0  0  0  0  0  0  0  0  0  0  0
++         2  2  2  2  2  2  2  2  2  2  2  2  2  2  2  2  2
++         2  2  2  2  2  2  2  2  2  2  2  2  2  2  0  0  0
++         0  0  0  0  0  0  0  0  0  0  0  0  0  0  0  0  0
++         0  0  0  0  0  0  0  0  0  0  0  0  0  0  0  0  0
++         0  0  0  0  0  0  0  0  0  0  0  0  0  0  0  0  0
%c cc cc ccc ccc cccc cccc cccc cccc ccccc ccccc ccccc ccccc
%c cc cc ccc ccc cccc cccc cccc cccc ccccc ccccc ccccc ccccc
%f  0.0000000  0.000000000  0.00000000000  0.000000000000000
%f  0.0000000  0.000000000  0.00000000000  0.000000000000000
%i    0    0    0    0      0      0      0      0         0
%i    0    0    0    0      0      0      0      0         0
/*      NGA, ST. LOUIS,MO.                                  
/*   EPHEMERIS COMPUTED FROM  1 DAYS OF DATA                
/*   EPOCHA SMOOTHER                                       
/* CCCCCCCCCCCCCCCCCCCCCCCCCCCCCCCCCCCCCCCCCCCCCCCCCCCCCCCCC
*  2015  2 16 21 20  0.00000000
P  1 -22795.522175 -13700.434985  -1818.085565     -8.934943                    
V  1   3209.831533  -1243.490529 -31565.836175      0.004215                    
P  2   5285.847861  18175.797331  19156.508435    548.379896                    
V  2 -21655.435355  -9245.863776  14550.267246      0.022908                    
P  3 -13192.777033 -14327.211660  18044.713844    212.851905                    
V  3    771.785386 -22967.794327 -17719.895558      0.204725                    
P  4 -16722.408964 -17737.936693 -11172.096633     -7.308075                    
V  4  13392.797797   3832.114459 -26630.088138     -0.006815                    
P  5   2913.839167  26191.010429  -2482.521313   -278.170175                    
V  5  -3262.628564   3253.147979  31341.037340      0.050830                    
P  6 -10384.587281  11509.230594  21560.945956     83.964248                    
V  6 -24037.630973 -13127.595500  -4583.556231      0.112150                    
P  7 -23972.527304  -5234.751458 -10513.250113    440.836008                    
V  7 -10698.653280  -8228.623684  27881.465927      0.031141                    
P  8  -3102.742914 -17931.936148  19767.841732     17.730003                    
V  8  20141.737752  13747.876604  15190.902305      0.002522                    
P  9 -23319.070432   5009.183945  11687.547185    -88.936046                    
V  9  11250.872811 -10010.583075  26705.497325     -0.113188                    
P 10  -9899.834551  19552.430297  14320.122185   -163.638637                    
V 10  -3453.384553 -18975.227119  23335.908209     -0.016870                    
P 11 -20890.564143 -12435.037121 -11382.894565   -558.344494                    
V 11  14243.326007  -1782.228964 -25221.583424     -0.025687                    
P 12  10726.211608  17859.380083  16524.384434    269.890315                    
V 12  -1328.779732  20980.485252 -21489.317466      0.029543                    
P 13  -2002.006120  16631.134483 -20792.156592    -88.852621                    
V 13 -23711.372918  10655.019865  10766.733968     -0.033999                    
P 14  20312.182352 -15775.950384   6552.295582     86.786244                    
V 14   8323.425485  -1458.795441 -30523.695970     -0.035127                    
P 15  12375.196351  10476.831536 -21155.286867   -232.683508                    
V 15 -21755.959795  15542.588814  -4731.160036     -0.022281                    
P 16  -1009.862046 -26213.107369  -2591.890656   -155.721717                    
V 16   2279.551508  -3182.905830  32412.333664      0.033161                    
P 17 -21209.549139  15306.126392   4173.962627   -156.282906                    
V 17  -5600.301019    189.172408 -31541.173862     -0.022019                    
P 18  15116.703119  -6038.147119 -20469.854799    380.074301                    
V 18   2462.255551  27183.340353  -6368.307433      0.027500                    
P 19  -7128.964133 -13352.826777 -22001.744805   -500.807066                    
V 19  24640.272027 -12193.652344   -140.904336     -0.014096                    
P 20 -13455.344832  11758.737697  19470.332200    290.469175                    
V 20  -4268.348565 -24917.983744  12078.653120      0.040847                    
P 21  22803.804560    685.359443 -13234.347808   -417.385979                    
V 21  14613.009101  10619.159797  24087.378989     -0.040686                    
P 22  10511.247653 -18827.384381 -15177.392077    319.076625                    
V 22   3991.751950  19660.819247 -21490.382396      0.043268                    
P 23 -18714.608687  -4172.636841  18685.319036    -89.248600                    
V 23  19136.546364 -13435.455127  15858.257916     -0.026296                    
P 24  21553.400061  14888.294681  -4857.147960    -43.588560                    
V 24  -6723.283455   -278.472964 -30728.144653     -0.006759                    
P 25  14749.483993   4103.737710  21640.131599     -4.278680                    
V 25    704.968911  27594.123269  -5536.909987     -0.028215                    
P 27   3916.530602 -18049.794328 -19060.520130     51.932950                    
V 27  21183.775007 -11780.004103  15606.446545      0.026474                    
P 28 -12302.293806  14385.139630 -17969.633716    419.987359                    
V 28   -563.841455 -24102.947613 -18374.472680      0.025862                    
P 29  22219.831191  -1002.403840  14514.588477    592.544717                    
V 29 -15158.019688  10546.012327  24023.952517      0.023785                    
P 30 -18986.656458   3270.119776 -18311.391702    -84.380150                    
V 30 -18821.078470 -13703.584723  17027.103030      0.014135                    
P 31   7959.951855 -12652.533257  22097.770416    323.154419                    
V 31  24072.238152  13644.188025   -532.742927     -0.008839                    
P 32  -4713.631951 -25130.493026   8147.443917   -222.044817                    
V 32   3049.898238 -10096.529105 -28808.153826      0.090870                    
EOF
